OBJECT_NAME,OBJECT_ID,EPOCH,MEAN_MOTION,ECCENTRICITY,INCLINATION,RA_OF_ASC_NODE,ARG_OF_PERICENTER,MEAN_ANOMALY,EPHEMERIS_TYPE,CLASSIFICATION_TYPE,NORAD_CAT_ID,ELEMENT_SET_NO,REV_AT_EPOCH,BSTAR,MEAN_MOTION_DOT,MEAN_MOTION_DDOT
STARLINK-31325,2024-044P,2026-05-18T02:36:07.762752,15.27565925,.0000878,43.0018,74.8710,274.8122,85.2630,0,U,59165,999,12418,-.64359E-4,-.2032E-4,0
STARLINK-31342,2024-044Q,2026-05-18T04:15:49.780800,15.27560975,.0000746,43.0010,74.5286,275.6201,84.4566,0,U,59166,999,12422,.19279E-4,.268E-5,0
STARLINK-31298,2024-044R,2026-05-18T04:21:23.110272,15.27568166,.0000797,43.0016,74.5576,268.3334,91.7427,0,U,59167,999,12419,-.37788E-4,-.1301E-4,0
STARLINK-31322,2024-044S,2026-05-18T04:58:23.706048,15.27563133,.000096,43.0046,74.7446,279.0387,81.0356,0,U,59168,999,12422,-.58505E-4,-.1871E-4,0
STARLINK-31329,2024-044T,2026-05-18T03:13:09.481728,15.27557716,.0002282,42.9983,75.0537,286.9246,73.1355,0,U,59169,999,12418,-.48728E-4,-.1602E-4,0
STARLINK-31340,2024-044U,2026-05-18T01:38:48.691968,15.27654083,.0001579,43.0005,35.6578,285.3905,74.6772,0,U,59170,999,12463,.52728E-3,.14308E-3,0
STARLINK-31344,2024-044V,2026-05-18T04:52:50.155392,15.27570737,.0000787,43.0040,74.7190,276.6384,83.4378,0,U,59171,999,12422,-.52908E-4,-.1717E-4,0
STARLINK-31348,2024-044W,2026-05-17T23:29:02.456160,15.27581420,.00014241,43.0014,28.9024,275.3739,84.6950,0,U,59172,999,12470,.57304508E-4,.1315E-4,0
STARLINK-31289,2024-044X,2026-05-18T04:26:55.504032,15.27567820,.0000997,43.0020,74.5846,264.0825,95.9913,0,U,59173,999,12422,-.10478E-3,-.3143E-4,0
STARLINK-31283,2024-044Y,2026-05-18T04:00:01.998720,15.27544058,.0001541,43.0012,27.7441,270.0803,88.5093,0,U,59174,999,574,.26089E-2,.72154E-3,0
EXO-0,2023-174DK,2026-05-18T04:51:21.610944,15.34128616,.0007449,97.3822,218.3464,276.5562,83.4833,0,U,59175,999,14044,.16891E-3,.5502E-4,0
STARLINK-31439,2024-045A,2026-05-18T03:45:58.429728,15.27587051,.000083,43.0047,56.9324,267.0208,93.0549,0,U,59178,999,6015,.19049E-3,.4985E-4,0
STARLINK-31410,2024-045B,2026-05-18T03:43:25.618368,15.27551377,.0001591,43.0017,60.3824,270.2678,89.7992,0,U,59179,999,12378,.10263E-4,.2E-6,0
STARLINK-31395,2024-045C,2026-05-18T04:14:52.977120,15.27570315,.000163,43.0051,60.5382,243.6780,116.3904,0,U,59180,999,12378,-.60892E-4,-.1937E-4,0
STARLINK-31486,2024-045D,2026-05-18T03:51:31.167360,15.27567142,.0000999,43.0056,56.9603,278.6326,81.4412,0,U,59181,999,12382,-.13863E-3,-.4073E-4,0
STARLINK-31411,2024-045E,2026-05-18T04:31:18.774336,15.27577658,.0001548,43.0023,59.7654,263.5779,96.4896,0,U,59182,999,12379,.3665E-4,.746E-5,0
STARLINK-31382,2024-045G,2026-05-18T04:23:55.379040,15.27579996,.0001411,43.0053,59.7270,250.3586,109.7114,0,U,59184,999,12379,.17703E-3,.4612E-4,0
STARLINK-31394,2024-045H,2026-05-18T03:14:04.500384,15.27565036,.0000893,43.0037,49.8532,286.2816,73.7937,0,U,59185,999,12390,-.41951E-4,-.1416E-4,0
STARLINK-31403,2024-045J,2026-05-18T02:39:05.478048,15.27577409,.0002229,43.0085,39.0601,260.3450,99.7150,0,U,59186,999,12396,-.17147E-3,-.4978E-4,0
STARLINK-31514,2024-045K,2026-05-18T03:37:52.921344,15.27566261,.0000957,43.0037,60.3498,283.9151,76.1595,0,U,59187,999,12378,-.67341E-4,-.2114E-4,0
STARLINK-31478,2024-045L,2026-05-18T04:57:13.726368,15.27533633,.0000761,42.9992,59.8936,254.7012,105.3755,0,U,59188,999,12379,-.9343E-3,-.25845E-3,0
STARLINK-31498,2024-045M,2026-05-18T04:00:05.051232,15.27569044,.000115,43.0059,60.4586,281.0903,78.9820,0,U,59189,999,12378,-.56817E-4,-.1825E-4,0
STARLINK-31563,2024-045N,2026-05-18T03:06:25.219584,15.27569411,.0000728,43.0013,60.1811,262.2225,97.8544,0,U,59190,999,12378,-.46769E-4,-.1548E-4,0
STARLINK-31551,2024-045P,2026-05-17T22:08:00.829248,15.27558426,.00009957,43.0019,57.7745,283.6185,76.4556,0,U,59191,999,12379,.83987785E-4,.2048E-4,0
STARLINK-31536,2024-045Q,2026-05-18T04:00:01.998720,15.27560714,.0001133,43.0013,60.1678,249.5036,230.5715,0,U,59192,999,590,.20194E-2,.55694E-3,0
STARLINK-31548,2024-045R,2026-05-18T02:35:10.546944,15.27568591,.0001224,43.0058,60.8799,280.8867,79.1847,0,U,59193,999,12377,-.33547E-4,-.1185E-4,0
STARLINK-31542,2024-045S,2026-05-18T04:20:14.302176,15.27552000,.0001378,43.0035,59.7059,264.4821,95.5873,0,U,59194,999,12379,-.15148E-3,-.4425E-4,0
STARLINK-31554,2024-045T,2026-05-18T03:48:58.749984,15.27573053,.0000928,43.0043,60.4042,268.0753,91.9993,0,U,59195,999,12378,-.40097E-4,-.1365E-4,0
STARLINK-31558,2024-045U,2026-05-18T02:51:36.745056,15.27574770,.0000914,43.0011,60.1036,287.5669,72.5082,0,U,59196,999,12379,-.98849E-4,-.298E-4,0
STARLINK-31275,2024-045V,2026-05-18T03:54:31.764096,15.27570431,.0000971,43.0049,60.4310,281.2406,78.8337,0,U,59197,999,12378,-.22718E-4,-.887E-5,0
