STARLINK-31325          
1 59165U 24044P   26138.10842318 -.00002032  00000+0 -64359-4 0  9996
2 59165  43.0018  74.8710 0000878 274.8122  85.2630 15.27565925124187
STARLINK-31342          
1 59166U 24044Q   26138.17765950  .00000268  00000+0  19279-4 0  9998
2 59166  43.0010  74.5286 0000746 275.6201  84.4566 15.27560975124220
STARLINK-31298          
1 59167U 24044R   26138.18151748 -.00001301  00000+0 -37788-4 0  9990
2 59167  43.0016  74.5576 0000797 268.3334  91.7427 15.27568166124194
STARLINK-31322          
1 59168U 24044S   26138.20721882 -.00001871  00000+0 -58505-4 0  9998
2 59168  43.0046  74.7446 0000960 279.0387  81.0356 15.27563133124221
STARLINK-31329          
1 59169U 24044T   26138.13413752 -.00001602  00000+0 -48728-4 0  9993
2 59169  42.9983  75.0537 0002282 286.9246  73.1355 15.27557716124181
STARLINK-31340          
1 59170U 24044U   26138.06861912  .00014308  00000+0  52728-3 0  9991
2 59170  43.0005  35.6578 0001579 285.3905  74.6772 15.27654083124634
STARLINK-31344          
1 59171U 24044V   26138.20335828 -.00001717  00000+0 -52908-4 0  9993
2 59171  43.0040  74.7190 0000787 276.6384  83.4378 15.27570737124220
STARLINK-31348          
1 59172U 24044W   26137.97850065  .00001315  00000+0  57305-4 0  9990
2 59172  43.0014  28.9024 0001424 275.3739  84.6950 15.27581420124701
STARLINK-31289          
1 59173U 24044X   26138.18536463 -.00003143  00000+0 -10478-3 0  9990
2 59173  43.0020  74.5846 0000997 264.0825  95.9913 15.27567820124222
STARLINK-31283          
1 59174U 24044Y   26138.16668980  .00072154  00000+0  26089-2 0  9999
2 59174  43.0012  27.7441 0001541 270.0803  88.5093 15.27544058  5744
EXO-0                   
1 59175U 23174DK  26138.20233346  .00005502  00000+0  16891-3 0  9996
2 59175  97.3822 218.3464 0007449 276.5562  83.4833 15.34128616140444
STARLINK-31439          
1 59178U 24045A   26138.15692627  .00004985  00000+0  19049-3 0  9994
2 59178  43.0047  56.9324 0000830 267.0208  93.0549 15.27587051 60158
STARLINK-31410          
1 59179U 24045B   26138.15515762  .00000020  00000+0  10263-4 0  9995
2 59179  43.0017  60.3824 0001591 270.2678  89.7992 15.27551377123787
STARLINK-31395          
1 59180U 24045C   26138.17700205 -.00001937  00000+0 -60892-4 0  9990
2 59180  43.0051  60.5382 0001630 243.6780 116.3904 15.27570315123783
STARLINK-31486          
1 59181U 24045D   26138.16077740 -.00004073  00000+0 -13863-3 0  9990
2 59181  43.0056  56.9603 0000999 278.6326  81.4412 15.27567142123820
STARLINK-31411          
1 59182U 24045E   26138.18841174  .00000746  00000+0  36650-4 0  9994
2 59182  43.0023  59.7654 0001548 263.5779  96.4896 15.27577658123799
STARLINK-31382          
1 59184U 24045G   26138.18327985  .00004612  00000+0  17703-3 0  9998
2 59184  43.0053  59.7270 0001411 250.3586 109.7114 15.27579996123795
STARLINK-31394          
1 59185U 24045H   26138.13477431 -.00001416  00000+0 -41951-4 0  9990
2 59185  43.0037  49.8532 0000893 286.2816  73.7937 15.27565036123902
STARLINK-31403          
1 59186U 24045J   26138.11048007 -.00004978  00000+0 -17147-3 0  9997
2 59186  43.0085  39.0601 0002229 260.3450  99.7150 15.27577409123964
STARLINK-31514          
1 59187U 24045K   26138.15130696 -.00002114  00000+0 -67341-4 0  9990
2 59187  43.0037  60.3498 0000957 283.9151  76.1595 15.27566261123784
STARLINK-31478          
1 59188U 24045L   26138.20640887 -.00025845  00000+0 -93430-3 0  9998
2 59188  42.9992  59.8936 0000761 254.7012 105.3755 15.27533633123799
STARLINK-31498          
1 59189U 24045M   26138.16672513 -.00001825  00000+0 -56817-4 0  9996
2 59189  43.0059  60.4586 0001150 281.0903  78.9820 15.27569044123782
STARLINK-31563          
1 59190U 24045N   26138.12945856 -.00001548  00000+0 -46769-4 0  9994
2 59190  43.0013  60.1811 0000728 262.2225  97.8544 15.27569411123781
STARLINK-31551          
1 59191U 24045P   26137.92223182  .00002048  00000+0  83988-4 0  9991
2 59191  43.0019  57.7745 0000995 283.6185  76.4556 15.27558426123795
STARLINK-31536          
1 59192U 24045Q   26138.16668980  .00055694  00000+0  20194-2 0  9991
2 59192  43.0013  60.1678 0001133 249.5036 230.5715 15.27560714  5909
STARLINK-31548          
1 59193U 24045R   26138.10776096 -.00001185  00000+0 -33547-4 0  9990
2 59193  43.0058  60.8799 0001224 280.8867  79.1847 15.27568591123771
STARLINK-31542          
1 59194U 24045S   26138.18072109 -.00004425  00000+0 -15148-3 0  9999
2 59194  43.0035  59.7059 0001378 264.4821  95.5873 15.27552000123792
STARLINK-31554          
1 59195U 24045T   26138.15901331 -.00001365  00000+0 -40097-4 0  9997
2 59195  43.0043  60.4042 0000928 268.0753  91.9993 15.27573053123780
STARLINK-31558          
1 59196U 24045U   26138.11917529 -.00002980  00000+0 -98849-4 0  9992
2 59196  43.0011  60.1036 0000914 287.5669  72.5082 15.27574770123795
STARLINK-31275          
1 59197U 24045V   26138.16286764 -.00000887  00000+0 -22718-4 0  9994
2 59197  43.0049  60.4310 0000971 281.2406  78.8337 15.27570431123789
